FENGYUN 3D              
1 43010U 17072A   26197.60576071 -.00000201  00000+0 -72998-4 0  9995
2 43010  99.0143 172.5625 0001470  11.3062 348.8146 14.19744188449164
NOAA 20 (JPSS-1)        
1 43013U 17073A   26197.60556083  .00000016  00000+0  28560-4 0  9998
2 43013  98.7772 136.8076 0001437 123.0918 237.0396 14.19516621448645
GOES 17                 
1 43226U 18022A   26197.53729722 -.00000194  00000+0  00000+0 0  9995
2 43226   1.0105  85.2348 0000572  76.1104 236.9514  1.00270927 30718
SENTINEL-3B             
1 43437U 18039A   26197.22346602  .00000045  00000+0  36498-4 0  9994
2 43437  98.6236 264.3371 0001166 119.9543 240.1753 14.26736511428269
FENGYUN 2H              
1 43491U 18050A   26197.57070360 -.00000138  00000+0  00000+0 0  9999
2 43491   3.1048  78.7224 0002308 134.2834   5.9579  1.00267049 29732
METOP-C                 
1 43689U 18087A   26196.57486992  .00000053  00000+0  44045-4 0  9996
2 43689  98.6630 255.6574 0002216  93.2289 266.9142 14.21519167398863
GEO-KOMPSAT-2A          
1 43823U 18100A   26197.50912758 -.00000355  00000+0  00000+0 0  9994
2 43823   0.0333 170.8393 0001959 292.0796 142.9462  1.00268212 27921
METEOR-M2 2             
1 44387U 19038A   26197.60748839 -.00000166  00000+0 -51755-4 0  9998
2 44387  98.9156 185.3296 0000660   1.2735 358.8445 14.24372200365488
ARKTIKA-M 1             
1 47719U 21016A   26195.40739072 -.00000301  00000+0  00000+0 0  9996
2 47719  63.2662  53.6722 7297332 270.0591  14.4994  2.00611590 39330
FENGYUN 3E              
1 49008U 21062A   26197.58638147 -.00000229  00000+0 -86974-4 0  9991
2 49008  98.7495 200.6674 0002235  36.1946 323.9381 14.19905550260759
GOES 18                 
1 51850U 22021A   26197.63239183  .00000086  00000+0  00000+0 0  9998
2 51850   0.0178  93.6502 0000424  84.3084 207.1549  1.00271424  6880
NOAA 21 (JPSS-2)        
1 54234U 22150A   26197.56735061  .00000018  00000+0  29089-4 0  9996
2 54234  98.7059 135.8632 0002847 102.1814 257.9682 14.19541180190715
METEOSAT-12 (MTG-I1)    
1 54743U 22170C   26197.34115039 -.00000019  00000+0  00000+0 0  9995
2 54743   0.7264  19.9425 0003847  81.6301 315.0788  1.00268005 13272
TIANMU-1 03             
1 55973U 23039A   26197.59723514  .00008856  00000+0  17091-3 0  9994
2 55973  97.5240  12.7371 0002457  22.6908 337.4450 15.48068156185389
TIANMU-1 04             
1 55974U 23039B   26197.63970611  .00009411  00000+0  17758-3 0  9990
2 55974  97.5181  11.9374 0002888   7.2425 352.8867 15.48696780185405
TIANMU-1 05             
1 55975U 23039C   26197.57944361  .00009123  00000+0  17644-3 0  9991
2 55975  97.5226  12.3224 0002847  41.9258 318.2210 15.47993661185369
TIANMU-1 06             
1 55976U 23039D   26197.58036953  .00009371  00000+0  17747-3 0  9991
2 55976  97.5233  12.9890 0002936  32.8077 327.3355 15.48592436185390
FENGYUN 3G              
1 56232U 23055A   26197.50603324  .00013278  00000+0  20923-3 0  9990
2 56232  49.9908 194.8076 0007000  62.1014 298.0662 15.53826386184569
METEOR-M2 3             
1 57166U 23091A   26197.60860822 -.00000018  00000+0  10999-4 0  9998
2 57166  98.6067 251.9824 0005139  87.1126 273.0642 14.24049000158706
TIANMU-1 07             
1 57399U 23101A   26197.59681951  .00003233  00000+0  11346-3 0  9997
2 57399  97.2575 247.5931 0003669  61.8392 298.3219 15.30124712166142
TIANMU-1 08             
1 57400U 23101B   26197.62877928  .00003204  00000+0  11242-3 0  9998
2 57400  97.2563 247.3907 0004476  42.5592 317.5995 15.30128643166140
TIANMU-1 09             
1 57401U 23101C   26197.61150279  .00003415  00000+0  11950-3 0  9991
2 57401  97.2520 246.7748 0004269  61.8825 298.2848 15.30170309166141
TIANMU-1 10             
1 57402U 23101D   26197.57967325  .00003332  00000+0  11676-3 0  9998
2 57402  97.2600 247.8242 0005539  50.6717 309.5014 15.30143512166135
FENGYUN 3F              
1 57490U 23111A   26197.64005448  .00000015  00000+0  27665-4 0  9994
2 57490  98.6824 267.0982 0001246  76.0635 284.0681 14.19943571153044
ARKTIKA-M 2             
1 58584U 23198A   26196.17500106  .00000129  00000+0  00000+0 0  9997
2 58584  63.2178 151.2342 6910736 267.3397  18.7345  2.00608092 18886
TIANMU-1 11             
1 58645U 23205A   26197.60480319  .00002713  00000+0  10425-3 0  9993
2 58645  97.3440 218.7046 0006829 255.7293 104.3188 15.27271634142014
TIANMU-1 12             
1 58646U 23205B   26197.57735853  .00002952  00000+0  11378-3 0  9999
2 58646  97.3429 218.4239 0005914 228.2833 131.7901 15.27103835141992
TIANMU-1 13             
1 58647U 23205C   26197.61080686  .00002879  00000+0  11106-3 0  9999
2 58647  97.3457 218.7374 0005950 206.5376 153.5559 15.27096680141998
TIANMU-1 14             
1 58648U 23205D   26197.59515980  .00002850  00000+0  10981-3 0  9996
2 58648  97.3393 217.8807 0006560 214.2837 145.7980 15.27140176141996
TIANMU-1 19             
1 58660U 23208A   26197.61793615  .00004659  00000+0  15340-3 0  9992
2 58660  97.4531 314.0801 0004739 193.0014 167.1106 15.31989109141839
