OBJECT_NAME,OBJECT_ID,EPOCH,MEAN_MOTION,ECCENTRICITY,INCLINATION,RA_OF_ASC_NODE,ARG_OF_PERICENTER,MEAN_ANOMALY,EPHEMERIS_TYPE,CLASSIFICATION_TYPE,NORAD_CAT_ID,ELEMENT_SET_NO,REV_AT_EPOCH,BSTAR,MEAN_MOTION_DOT,MEAN_MOTION_DDOT
FENGYUN 3D,2017-072A,2026-07-16T14:32:17.725344,14.19744188,.00014707,99.0143,172.5625,11.3062,348.8146,0,U,43010,999,44916,-.72997603E-4,-.201E-5,0
NOAA 20 (JPSS-1),2017-073A,2026-07-16T14:32:00.455712,14.19516621,.00014378,98.7772,136.8076,123.0918,237.0396,0,U,43013,999,44864,.2856049E-4,.16E-6,0
GOES 17,2018-022A,2026-07-16T12:53:42.479808,1.00270927,.00005724,1.0105,85.2348,76.1104,236.9514,0,U,43226,999,3071,0,-.194E-5,0
SENTINEL-3B,2018-039A,2026-07-16T05:21:47.464128,14.26736511,.00011661,98.6236,264.3371,119.9543,240.1753,0,U,43437,999,42826,.36498009E-4,.45E-6,0
FENGYUN 2H,2018-050A,2026-07-16T13:41:48.791040,1.00267049,.00023083,3.1048,78.7224,134.2834,5.9579,0,U,43491,999,2973,0,-.138E-5,0
METOP-C,2018-087A,2026-07-15T13:47:48.761088,14.21519167,.0002216,98.6630,255.6574,93.2289,266.9142,0,U,43689,999,39886,.44045E-4,.53E-6,0
GEO-KOMPSAT-2A,2018-100A,2026-07-16T12:13:08.622912,1.00268212,.00019599,0.0333,170.8393,292.0796,142.9462,0,U,43823,999,2792,0,-.355E-5,0
METEOR-M2 2,2019-038A,2026-07-16T14:34:46.996896,14.24372200,.00006604,98.9156,185.3296,1.2735,358.8445,0,U,44387,999,36548,-.5175465E-4,-.166E-5,0
ARKTIKA-M 1,2021-016A,2026-07-14T09:46:38.558208,2.00611590,.7297332,63.2662,53.6722,270.0591,14.4994,0,U,47719,999,3933,0,-.301E-5,0
FENGYUN 3E,2021-062A,2026-07-16T14:04:23.359008,14.19905550,.00022357,98.7495,200.6674,36.1946,323.9381,0,U,49008,999,26075,-.86973593E-4,-.229E-5,0
GOES 18,2022-021A,2026-07-16T15:10:38.654112,1.00271424,.0000424,0.0178,93.6502,84.3084,207.1549,0,U,51850,999,688,0,.86E-6,0
NOAA 21 (JPSS-2),2022-150A,2026-07-16T13:36:59.092704,14.19541180,.00028477,98.7059,135.8632,102.1814,257.9682,0,U,54234,999,19071,.29089265E-4,.18E-6,0
METEOSAT-12 (MTG-I1),2022-170C,2026-07-16T08:11:15.393696,1.00268005,.00038477,0.7264,19.9425,81.6301,315.0788,0,U,54743,999,1327,0,-.19E-6,0
TIANMU-1 03,2023-039A,2026-07-16T14:20:01.116096,15.48068156,.00024579,97.5240,12.7371,22.6908,337.4450,0,U,55973,999,18538,.17090967E-3,.8856E-4,0
TIANMU-1 04,2023-039B,2026-07-16T15:21:10.607904,15.48696780,.0002888,97.5181,11.9374,7.2425,352.8867,0,U,55974,999,18540,.17757744E-3,.9411E-4,0
TIANMU-1 05,2023-039C,2026-07-16T13:54:23.927904,15.47993661,.00028475,97.5226,12.3224,41.9258,318.2210,0,U,55975,999,18536,.17643969E-3,.9123E-4,0
TIANMU-1 06,2023-039D,2026-07-16T13:55:43.927392,15.48592436,.0002936,97.5233,12.9890,32.8077,327.3355,0,U,55976,999,18539,.177475E-3,.9371E-4,0
FENGYUN 3G,2023-055A,2026-07-16T12:08:41.271936,15.53826386,.00070002,49.9908,194.8076,62.1014,298.0662,0,U,56232,999,18456,.20923492E-3,.13278E-3,0
METEOR-M2 3,2023-091A,2026-07-16T14:36:23.750208,14.24049000,.00051398,98.6067,251.9824,87.1126,273.0642,0,U,57166,999,15870,.10998881E-4,-.18E-6,0
TIANMU-1 07,2023-101A,2026-07-16T14:19:25.205664,15.30124712,.00036694,97.2575,247.5931,61.8392,298.3219,0,U,57399,999,16614,.11346231E-3,.3233E-4,0
TIANMU-1 08,2023-101B,2026-07-16T15:05:26.529792,15.30128643,.00044767,97.2563,247.3907,42.5592,317.5995,0,U,57400,999,16614,.11242179E-3,.3204E-4,0
TIANMU-1 09,2023-101C,2026-07-16T14:40:33.841056,15.30170309,.0004269,97.2520,246.7748,61.8825,298.2848,0,U,57401,999,16614,.11949949E-3,.3415E-4,0
TIANMU-1 10,2023-101D,2026-07-16T13:54:43.768800,15.30143512,.00055392,97.2600,247.8242,50.6717,309.5014,0,U,57402,999,16613,.11676451E-3,.3332E-4,0
FENGYUN 3F,2023-111A,2026-07-16T15:21:40.707072,14.19943571,.00012466,98.6824,267.0982,76.0635,284.0681,0,U,57490,999,15304,.27664543E-4,.15E-6,0
ARKTIKA-M 2,2023-198A,2026-07-15T04:12:00.091584,2.00608092,.69107365,63.2178,151.2342,267.3397,18.7345,0,U,58584,999,1888,0,.129E-5,0
TIANMU-1 11,2023-205A,2026-07-16T14:30:54.995616,15.27271634,.00068294,97.3440,218.7046,255.7293,104.3188,0,U,58645,999,14201,.10424964E-3,.2713E-4,0
TIANMU-1 12,2023-205B,2026-07-16T13:51:23.776992,15.27103835,.00059146,97.3429,218.4239,228.2833,131.7901,0,U,58646,999,14199,.11378495E-3,.2952E-4,0
TIANMU-1 13,2023-205C,2026-07-16T14:39:33.712704,15.27096680,.00059502,97.3457,218.7374,206.5376,153.5559,0,U,58647,999,14199,.11106073E-3,.2879E-4,0
TIANMU-1 14,2023-205D,2026-07-16T14:17:01.806720,15.27140176,.00065603,97.3393,217.8807,214.2837,145.7980,0,U,58648,999,14199,.10981378E-3,.285E-4,0
TIANMU-1 19,2023-208A,2026-07-16T14:49:49.683360,15.31989109,.00047396,97.4531,314.0801,193.0014,167.1106,0,U,58660,999,14183,.15339854E-3,.4659E-4,0
